[{"OBJECT_NAME":"TRANSPORTER-10 OBJECT AG","OBJECT_ID":"2024-043AG","EPOCH":"2026-03-09T22:12:45.387648","MEAN_MOTION":15.30759727,"ECCENTRICITY":0.00093005,"INCLINATION":97.5471,"RA_OF_ASC_NODE":205.7101,"ARG_OF_PERICENTER":226.5958,"MEAN_ANOMALY":133.4509,"EPHEMERIS_TYPE":0,"CLASSIFICATION_TYPE":"U","NORAD_CAT_ID":59128,"ELEMENT_SET_NO":999,"REV_AT_EPOCH":11192,"BSTAR":0.00032170115,"MEAN_MOTION_DOT":9.498e-5,"MEAN_MOTION_DDOT":0},{"OBJECT_NAME":"STARLINK-33821","OBJECT_ID":"2025-093Z","EPOCH":"2026-03-09T01:24:43.857216","MEAN_MOTION":15.27586901,"ECCENTRICITY":9.015e-5,"INCLINATION":43.0003,"RA_OF_ASC_NODE":81.5957,"ARG_OF_PERICENTER":277.1325,"MEAN_ANOMALY":82.9424,"EPHEMERIS_TYPE":0,"CLASSIFICATION_TYPE":"U","NORAD_CAT_ID":63859,"ELEMENT_SET_NO":999,"REV_AT_EPOCH":4785,"BSTAR":0.0011694757,"MEAN_MOTION_DOT":0.00032066,"MEAN_MOTION_DDOT":0}]
